{
  "norad_id": 68479,
  "name": "TRANSPORTER-16 OBJECT BR",
  "history": [
    {
      "epoch": "2026-04-15T20:44:10.596192Z",
      "apogee_km": 593.5630199434627,
      "perigee_km": 589.275348978782,
      "latitude_deg": -2.0106511552592035e-05,
      "longitude_deg": -89.96091209934185,
      "height_km": 594.6355149192802,
      "semi_major_axis_km": 6969.556184461122,
      "eccentricity": 0.0003076,
      "inclination_deg": 97.7501,
      "raan_deg": 65.1032,
      "arg_perigee_deg": 94.7918,
      "mean_anomaly_deg": 265.3652,
      "mean_motion_rev_day": 14.92090196
    }
  ]
}