TRANSPORTER-16 OBJECT BR
1 68479U 26067BR  26105.86401153  .00003322  00000+0  33241-3 0  9992
2 68479  97.7501  65.1032 0003076  94.7918 265.3652 14.92090196  2435
